{"type": "FeatureCollection", "features": [ {"type": "Feature", "properties": {"norad_id": 58662, "name": "TIANMU-1 21", "group": "weather", "lat": -47.56167795112521, "lon": -89.03255487152312, "alt_km": 474.9173040801761, "timestamp": "2025-12-11T18:59:45.708909+00:00", "meta": {"OBJECT_NAME": "TIANMU-1 21", "OBJECT_ID": "2023-208C", "EPOCH": "2025-12-11T07:01:34.687776", "MEAN_MOTION": 15.31501379, "ECCENTRICITY": 0.00058868, "INCLINATION": 97.4371, "RA_OF_ASC_NODE": 98.6807, "ARG_OF_PERICENTER": 266.2962, "MEAN_ANOMALY": 93.7606, "EPHEMERIS_TYPE": 0, "CLASSIFICATION_TYPE": "U", "NORAD_CAT_ID": 58662, "ELEMENT_SET_NO": 999, "REV_AT_EPOCH": 10877, "BSTAR": 0.00057183928, "MEAN_MOTION_DOT": 0.00017346, "MEAN_MOTION_DDOT": 0}, "tle": {"line1": "1 58662U 23208C   25345.29276259  .00017346  00000+0  57184-3 0  9991", "line2": "2 58662  97.4371  98.6807 0005886 266.2962  93.7606 15.31501379108777"}}, "geometry": {"type": "Point", "coordinates": [-89.03255487152312, -47.56167795112521]}}, {"type": "Feature", "properties": {"norad_id": 58663, "name": "TIANMU-1 22", "group": "weather", "lat": 16.01682555660284, "lon": -80.96126619223212, "alt_km": 485.02414387482986, "timestamp": "2025-12-11T18:59:45.708919+00:00", "meta": {"OBJECT_NAME": "TIANMU-1 22", "OBJECT_ID": "2023-208D", "EPOCH": "2025-12-11T07:16:35.146848", "MEAN_MOTION": 15.27566099, "ECCENTRICITY": 0.0002705, "INCLINATION": 97.4379, "RA_OF_ASC_NODE": 96.4025, "ARG_OF_PERICENTER": 295.0286, "MEAN_ANOMALY": 65.0672, "EPHEMERIS_TYPE": 0, "CLASSIFICATION_TYPE": "U", "NORAD_CAT_ID": 58663, "ELEMENT_SET_NO": 999, "REV_AT_EPOCH": 10861, "BSTAR": 0.00052490639, "MEAN_MOTION_DOT": 0.0001409, "MEAN_MOTION_DDOT": 0}, "tle": {"line1": "1 58663U 23208D   25345.30318457  .00014090  00000+0  52491-3 0  9990", "line2": "2 58663  97.4379  96.4025 0002705 295.0286  65.0672 15.27566099108613"}}, "geometry": {"type": "Point", "coordinates": [-80.96126619223212, 16.01682555660284]}}, {"type": "Feature", "properties": {"norad_id": 58700, "name": "TIANMU-1 15", "group": "weather", "lat": -56.207068055662795, "lon": 178.5604146654638, "alt_km": 495.3035437983035, "timestamp": "2025-12-11T18:59:45.708929+00:00", "meta": {"OBJECT_NAME": "TIANMU-1 15", "OBJECT_ID": "2024-004A", "EPOCH": "2025-12-11T06:38:38.779872", "MEAN_MOTION": 15.24648517, "ECCENTRICITY": 0.00052496, "INCLINATION": 97.4631, "RA_OF_ASC_NODE": 166.7521, "ARG_OF_PERICENTER": 304.7839, "MEAN_ANOMALY": 55.2904, "EPHEMERIS_TYPE": 0, "CLASSIFICATION_TYPE": "U", "NORAD_CAT_ID": 58700, "ELEMENT_SET_NO": 999, "REV_AT_EPOCH": 10712, "BSTAR": 0.00044826912, "MEAN_MOTION_DOT": 0.00011007, "MEAN_MOTION_DDOT": 0}, "tle": {"line1": "1 58700U 24004A   25345.27683773  .00011007  00000+0  44827-3 0  9998", "line2": "2 58700  97.4631 166.7521 0005249 304.7839  55.2904 15.24648517107123"}}, "geometry": {"type": "Point", "coordinates": [178.5604146654638, -56.207068055662795]}}, {"type": "Feature", "properties": {"norad_id": 58701, "name": "TIANMU-1 16", "group": "weather", "lat": 25.54310846628348, "lon": 163.0654484001905, "alt_km": 491.44755160701425, "timestamp": "2025-12-11T18:59:45.708942+00:00", "meta": {"OBJECT_NAME": "TIANMU-1 16", "OBJECT_ID": "2024-004B", "EPOCH": "2025-12-11T06:16:49.360224", "MEAN_MOTION": 15.24415152, "ECCENTRICITY": 0.00045787, "INCLINATION": 97.4571, "RA_OF_ASC_NODE": 166.1271, "ARG_OF_PERICENTER": 303.0986, "MEAN_ANOMALY": 56.9811, "EPHEMERIS_TYPE": 0, "CLASSIFICATION_TYPE": "U", "NORAD_CAT_ID": 58701, "ELEMENT_SET_NO": 999, "REV_AT_EPOCH": 10712, "BSTAR": 0.00097204102, "MEAN_MOTION_DOT": 0.00023825, "MEAN_MOTION_DDOT": 0}, "tle": {"line1": "1 58701U 24004B   25345.26168241  .00023825  00000+0  97204-3 0  9994", "line2": "2 58701  97.4571 166.1271 0004578 303.0986  56.9811 15.24415152107124"}}, "geometry": {"type": "Point", "coordinates": [163.0654484001905, 25.54310846628348]}}, {"type": "Feature", "properties": {"norad_id": 58702, "name": "TIANMU-1 17", "group": "weather", "lat": 68.49432235636614, "lon": 6.489261026020705, "alt_km": 488.19015469914484, "timestamp": "2025-12-11T18:59:45.708952+00:00", "meta": {"OBJECT_NAME": "TIANMU-1 17", "OBJECT_ID": "2024-004C", "EPOCH": "2025-12-11T07:29:13.345728", "MEAN_MOTION": 15.24462478, "ECCENTRICITY": 0.00037529, "INCLINATION": 97.4606, "RA_OF_ASC_NODE": 166.5864, "ARG_OF_PERICENTER": 306.8995, "MEAN_ANOMALY": 53.1898, "EPHEMERIS_TYPE": 0, "CLASSIFICATION_TYPE": "U", "NORAD_CAT_ID": 58702, "ELEMENT_SET_NO": 999, "REV_AT_EPOCH": 10712, "BSTAR": 0.00096038827, "MEAN_MOTION_DOT": 0.00023569, "MEAN_MOTION_DDOT": 0}, "tle": {"line1": "1 58702U 24004C   25345.31196002  .00023569  00000+0  96039-3 0  9997", "line2": "2 58702  97.4606 166.5864 0003752 306.8995  53.1898 15.24462478107127"}}, "geometry": {"type": "Point", "coordinates": [6.489261026020705, 68.49432235636614]}}, {"type": "Feature", "properties": {"norad_id": 58703, "name": "TIANMU-1 18", "group": "weather", "lat": -21.628964376724326, "lon": -15.720075043512495, "alt_km": 498.3119063377917, "timestamp": "2025-12-11T18:59:45.708963+00:00", "meta": {"OBJECT_NAME": "TIANMU-1 18", "OBJECT_ID": "2024-004D", "EPOCH": "2025-12-11T07:05:10.677408", "MEAN_MOTION": 15.24449208, "ECCENTRICITY": 0.00030771, "INCLINATION": 97.4622, "RA_OF_ASC_NODE": 166.7649, "ARG_OF_PERICENTER": 307.7377, "MEAN_ANOMALY": 52.3582, "EPHEMERIS_TYPE": 0, "CLASSIFICATION_TYPE": "U", "NORAD_CAT_ID": 58703, "ELEMENT_SET_NO": 999, "REV_AT_EPOCH": 10712, "BSTAR": 0.00090741696, "MEAN_MOTION_DOT": 0.00022251, "MEAN_MOTION_DDOT": 0}, "tle": {"line1": "1 58703U 24004D   25345.29526247  .00022251  00000+0  90742-3 0  9995", "line2": "2 58703  97.4622 166.7649 0003077 307.7377  52.3582 15.24449208107120"}}, "geometry": {"type": "Point", "coordinates": [-15.720075043512495, -21.628964376724326]}}, {"type": "Feature", "properties": {"norad_id": 58990, "name": "INSAT-3DS", "group": "weather", "lat": 0.0067791163520910976, "lon": 87.7693123167767, "alt_km": 35791.75732050261, "timestamp": "2025-12-11T18:59:45.708974+00:00", "meta": {"OBJECT_NAME": "INSAT-3DS", "OBJECT_ID": "2024-033A", "EPOCH": "2025-12-11T03:37:49.059264", "MEAN_MOTION": 1.00275093, "ECCENTRICITY": 0.00015555, "INCLINATION": 0.0367, "RA_OF_ASC_NODE": 130.251, "ARG_OF_PERICENTER": 135.2929, "MEAN_ANOMALY": 311.1059, "EPHEMERIS_TYPE": 0, "CLASSIFICATION_TYPE": "U", "NORAD_CAT_ID": 58990, "ELEMENT_SET_NO": 999, "REV_AT_EPOCH": 4518, "BSTAR": 0, "MEAN_MOTION_DOT": -1.51e-06, "MEAN_MOTION_DDOT": 0}, "tle": {"line1": "1 58990U 24033A   25345.15126226 -.00000151  00000+0  00000+0 0  9993", "line2": "2 58990   0.0367 130.2510 0001555 135.2929 311.1059  1.00275093 45183"}}, "geometry": {"type": "Point", "coordinates": [87.7693123167767, 0.0067791163520910976]}}, {"type": "Feature", "properties": {"norad_id": 59051, "name": "METEOR-M2 4", "group": "weather", "lat": 4.072514444307335, "lon": -57.90772509336748, "alt_km": 814.5009531347987, "timestamp": "2025-12-11T18:59:45.708986+00:00", "meta": {"OBJECT_NAME": "METEOR-M2 4", "OBJECT_ID": "2024-039A", "EPOCH": "2025-12-11T07:09:32.605920", "MEAN_MOTION": 14.22400957, "ECCENTRICITY": 0.00071175, "INCLINATION": 98.6764, "RA_OF_ASC_NODE": 302.2298, "ARG_OF_PERICENTER": 2.6802, "MEAN_ANOMALY": 357.4413, "EPHEMERIS_TYPE": 0, "CLASSIFICATION_TYPE": "U", "NORAD_CAT_ID": 59051, "ELEMENT_SET_NO": 999, "REV_AT_EPOCH": 9255, "BSTAR": 5.983896e-05, "MEAN_MOTION_DOT": 9e-07, "MEAN_MOTION_DDOT": 0}, "tle": {"line1": "1 59051U 24039A   25345.29829405  .00000090  00000+0  59839-4 0  9992", "line2": "2 59051  98.6764 302.2298 0007117   2.6802 357.4413 14.22400957 92554"}}, "geometry": {"type": "Point", "coordinates": [-57.90772509336748, 4.072514444307335]}}, {"type": "Feature", "properties": {"norad_id": 60133, "name": "GOES 19", "group": "weather", "lat": -0.002392131202675709, "lon": -69.5062688046776, "alt_km": 35781.04140567488, "timestamp": "2025-12-11T18:59:45.708997+00:00", "meta": {"OBJECT_NAME": "GOES 19", "OBJECT_ID": "2024-119A", "EPOCH": "2025-12-11T04:35:36.023424", "MEAN_MOTION": 1.00271097, "ECCENTRICITY": 0.00013305, "INCLINATION": 0.0119, "RA_OF_ASC_NODE": 101.0793, "ARG_OF_PERICENTER": 208.8281, "MEAN_ANOMALY": 123.9656, "EPHEMERIS_TYPE": 0, "CLASSIFICATION_TYPE": "U", "NORAD_CAT_ID": 60133, "ELEMENT_SET_NO": 999, "REV_AT_EPOCH": 507, "BSTAR": 0, "MEAN_MOTION_DOT": -2.42e-06, "MEAN_MOTION_DDOT": 0}, "tle": {"line1": "1 60133U 24119A   25345.19138916 -.00000242  00000+0  00000+0 0  9994", "line2": "2 60133   0.0119 101.0793 0001330 208.8281 123.9656  1.00271097  5074"}}, "geometry": {"type": "Point", "coordinates": [-69.5062688046776, -0.002392131202675709]}}, {"type": "Feature", "properties": {"norad_id": 65815, "name": "FENGYUN 3H", "group": "weather", "lat": -69.80869961102098, "lon": 80.92505943431289, "alt_km": 833.3486227849107, "timestamp": "2025-12-11T18:59:45.709007+00:00", "meta": {"OBJECT_NAME": "FENGYUN 3H", "OBJECT_ID": "2025-219A", "EPOCH": "2025-12-11T05:58:33.439296", "MEAN_MOTION": 14.19904178, "ECCENTRICITY": 6.08e-05, "INCLINATION": 98.6583, "RA_OF_ASC_NODE": 284.8718, "ARG_OF_PERICENTER": 89.5494, "MEAN_ANOMALY": 270.5752, "EPHEMERIS_TYPE": 0, "CLASSIFICATION_TYPE": "U", "NORAD_CAT_ID": 65815, "ELEMENT_SET_NO": 999, "REV_AT_EPOCH": 1071, "BSTAR": 0.00011267699, "MEAN_MOTION_DOT": 1.96e-06, "MEAN_MOTION_DDOT": 0}, "tle": {"line1": "1 65815U 25219A   25345.24899814  .00000196  00000+0  11268-3 0  9994", "line2": "2 65815  98.6583 284.8718 0000608  89.5494 270.5752 14.19904178 10718"}}, "geometry": {"type": "Point", "coordinates": [80.92505943431289, -69.80869961102098]}}]}